NORAD_CAT_ID,OBJECT_NAME,OBJECT_TYPE,EPOCH,MEAN_MOTION,ECCENTRICITY,INCLINATION,RA_OF_ASC_NODE,ARG_OF_PERICENTER,MEAN_ANOMALY,BSTAR,MEAN_MOTION_DOT,MEAN_MOTION_DDOT,TLE_LINE0,TLE_LINE1,TLE_LINE2,SEMIMAJOR_AXIS,PERIOD,APOGEE,PERIGEE,DECAYED
50839.0,STARLINK-3320,PAYLOAD,2022-05-06 08:00:01,15.08856032,0.0002167,53.2159,359.0268,37.4254,28.4987,-0.0035105,-0.00055752,0.0,0 STARLINK-3320,1 50839U 22001AN  22126.33334491 -.00055752  00000-0 -35105-2 0  9995,2 50839  53.2159 359.0268 0002167  37.4254  28.4987 15.08856032 19675,6917.831,95.437,541.195,538.197,0.0
50839.0,STARLINK-3320,PAYLOAD,2022-05-06 14:00:01,15.08807274,0.0002048,53.216,357.9037,40.1019,304.5232,0.0032029,0.0005101,0.0,0 STARLINK-3320,1 50839U 22001AN  22126.58334491  .00051010  00000-0  32029-2 0  9995,2 50839  53.2160 357.9037 0002048  40.1019 304.5232 15.08807274  3618,6917.98,95.44,541.262,538.429,0.0
50839.0,STARLINK-3320,PAYLOAD,2022-05-06 22:00:00,15.08837833,0.0002256,53.2161,356.409,37.5139,318.6875,-0.00019655,-3.415e-05,0.0,0 STARLINK-3320,1 50839U 22001AN  22126.91667824 -.00003415  00000-0 -19655-3 0  9990,2 50839  53.2161 356.4090 0002256  37.5139 318.6875 15.08837833 19762,6917.887,95.438,541.313,538.191,0.0
50839.0,STARLINK-3320,PAYLOAD,2022-05-07 14:00:01,15.08811449,0.0002005,53.2163,353.4144,39.554,339.8423,0.0028543,0.00045396,0.0,0 STARLINK-3320,1 50839U 22001AN  22127.58334491  .00045396  00000-0  28543-2 0  9992,2 50839  53.2163 353.4144 0002005  39.5540 339.8423 15.08811449  3617,6917.968000000003,95.439,541.22,538.446,0.0
50839.0,STARLINK-3320,PAYLOAD,2022-05-07 22:00:00,15.08837722,0.0002209,53.2163,351.9198,36.6539,354.3232,-0.00013255,-2.397e-05,0.0,0 STARLINK-3320,1 50839U 22001AN  22127.91667824 -.00002397  00000-0 -13255-3 0  9999,2 50839  53.2163 351.9198 0002209  36.6539 354.3232 15.08837722  3602,6917.887,95.438,541.281,538.224,0.0
50839.0,STARLINK-3320,PAYLOAD,2022-05-08 06:00:00,15.0887062,0.0002137,53.2161,350.4228,35.1746,7.3864,-0.0041724,-0.0006614,0.0,0 STARLINK-3320,1 50839U 22001AN  22128.25001157 -.00066140  00000-0 -41724-2 0  9995,2 50839  53.2161 350.4228 0002137  35.1746   7.3864 15.08870620 19968,6917.7869999999975,95.436,541.13,538.173,0.0
50839.0,STARLINK-3320,PAYLOAD,2022-05-08 14:00:01,15.08812776,0.0001937,53.2163,348.9253,38.9283,15.2389,0.0023695,0.00037596,0.0,0 STARLINK-3320,1 50839U 22001AN  22128.58334491  .00037596  00000-0  23695-2 0  9999,2 50839  53.2163 348.9253 0001937  38.9283  15.2389 15.08812776  3606,6917.964,95.439,541.169,538.489,0.0
50839.0,STARLINK-3320,PAYLOAD,2022-05-08 20:00:01,15.08839163,0.0002084,53.2163,347.8046,36.3202,296.5281,-0.0010262,-0.00016583,0.0,0 STARLINK-3320,1 50839U 22001AN  22128.83334491 -.00016583  00000-0 -10262-2 0  9998,2 50839  53.2163 347.8046 0002084  36.3202 296.5281 15.08839163 20053,6917.8830000000025,95.438,541.19,538.306,0.0
50839.0,STARLINK-3320,PAYLOAD,2022-05-08 22:00:00,15.08831338,0.0002146,53.2162,347.4308,36.1624,29.5846,-3.6668e-05,-8.72e-06,0.0,0 STARLINK-3320,1 50839U 22001AN  22128.91667824 -.00000872  00000-0 -36668-4 0  9990,2 50839  53.2162 347.4308 0002146  36.1624  29.5846 15.08831338  3603,6917.906999999997,95.438,541.256,538.2869999999998,0.0
50839.0,STARLINK-3320,PAYLOAD,2022-05-09 14:00:01,15.08854861,0.0001993,53.216,344.4363,42.2672,46.7301,-0.00090571,-0.0001468,0.0,0 STARLINK-3320,1 50839U 22001AN  22129.58335648 -.00014680  00000-0 -90571-3 0  9994,2 50839  53.2160 344.4363 0001993  42.2672  46.7301 15.08854861 20162,6917.835,95.437,541.0790000000002,538.321,0.0
50839.0,STARLINK-3320,PAYLOAD,2022-05-09 22:00:00,15.08832788,0.0002085,53.2158,342.9419,35.5643,64.9848,-6.850000000000001e-05,-1.378e-05,0.0,0 STARLINK-3320,1 50839U 22001AN  22129.91667824 -.00001378  00000-0 -68500-4 0  9993,2 50839  53.2158 342.9419 0002085  35.5643  64.9848 15.08832788  3590,6917.901999999999,95.438,541.21,538.325,0.0
50839.0,STARLINK-3320,PAYLOAD,2022-05-10 14:00:01,15.08854822,0.0001962,53.2155,339.9473,41.6476,82.0781,-0.0010359,-0.00016744,0.0,0 STARLINK-3320,1 50839U 22001AN  22130.58334491 -.00016744  00000-0 -10359-2 0  9999,2 50839  53.2155 339.9473 0001962  41.6476  82.0781 15.08854822  3600,6917.835,95.437,541.057,538.3430000000002,0.0
50839.0,STARLINK-3320,PAYLOAD,2022-05-10 18:00:00,15.08859385,0.0002064,53.2154,339.2003,39.98,269.5475,-0.00353,-0.00056062,0.0,0 STARLINK-3320,1 50839U 22001AN  22130.75001157 -.00056062  00000-0 -35300-2 0  9998,2 50839  53.2154 339.2003 0002064  39.9800 269.5475 15.08859385 20347,6917.821,95.436,541.114,538.258,0.0
50839.0,STARLINK-3320,PAYLOAD,2022-05-11 22:00:00,15.08837354,0.0002277,53.2151,333.9637,39.7321,130.3669,0.0012411,0.00019518,0.0,0 STARLINK-3320,1 50839U 22001AN  22131.91667824  .00019518  00000-0  12411-2 0  9997,2 50839  53.2151 333.9637 0002277  39.7321 130.3669 15.08837354 20511,6917.888000000001,95.438,541.3290000000002,538.178,0.0
50839.0,STARLINK-3320,PAYLOAD,2022-05-12 14:00:01,15.08845744,0.0002076,53.2151,330.969,42.6259,150.6755,0.00087423,0.00013655,0.0,0 STARLINK-3320,1 50839U 22001AN  22132.58334491  .00013655  00000-0  87423-3 0  9994,2 50839  53.2151 330.9690 0002076  42.6259 150.6755 15.08845744  1306,6917.863,95.437,541.164,538.2919999999998,0.0
50839.0,STARLINK-3320,PAYLOAD,2022-05-12 20:00:01,15.08863778,0.000224,53.2148,329.8481,38.4566,73.5493,-0.0027763,-0.00044232,0.0,0 STARLINK-3320,1 50839U 22001AN  22132.83334491 -.00044232  00000-0 -27763-2 0  9999,2 50839  53.2148 329.8481 0002240  38.4566  73.5493 15.08863778 20652,6917.808000000001,95.436,541.222,538.123,0.0
50839.0,STARLINK-3320,PAYLOAD,2022-05-12 22:00:00,15.08843866,0.0002264,53.215,329.4742,37.0494,167.8644,-0.00059238,-9.705e-05,0.0,0 STARLINK-3320,1 50839U 22001AN  22132.91667824 -.00009705  00000-0 -59238-3 0  9996,2 50839  53.2150 329.4742 0002264  37.0494 167.8644 15.08843866  1304,6917.869000000002,95.437,541.3,538.1669999999998,0.0
50839.0,STARLINK-3320,PAYLOAD,2022-05-13 14:00:01,15.0884635,0.0002035,53.2152,326.4795,39.4143,188.6843,-0.0014479,-0.00023262,0.0,0 STARLINK-3320,1 50839U 22001AN  22133.58334491 -.00023262  00000-0 -14479-2 0  9992,2 50839  53.2152 326.4795 0002035  39.4143 188.6843 15.08846350 20779,6917.861,95.437,541.134,538.318,0.0
50839.0,STARLINK-3320,PAYLOAD,2022-05-13 22:00:00,15.0881157,0.0002244,53.2152,324.9847,34.0981,205.5951,0.0021863,0.00034652,0.0,0 STARLINK-3320,1 50839U 22001AN  22133.91667824  .00034652  00000-0  21863-2 0  9996,2 50839  53.2152 324.9847 0002244  34.0981 205.5951 15.08811570  1306,6917.967,95.439,541.385,538.28,0.0
50839.0,STARLINK-3320,PAYLOAD,2022-05-14 14:00:01,15.08835731,0.0001999,53.2154,321.99,36.2765,226.5757,0.00046933,7.188e-05,0.0,0 STARLINK-3320,1 50839U 22001AN  22134.58334491  .00007188  00000-0  46933-3 0  9991,2 50839  53.2154 321.9900 0001999  36.2765 226.5757 15.08835731 20926,6917.893,95.438,541.141,538.376,0.0
50839.0,STARLINK-3320,PAYLOAD,2022-05-14 22:00:00,15.08819166,0.0002246,53.2153,320.4951,32.6866,241.763,0.0032196,0.00051297,0.0,0 STARLINK-3320,1 50839U 22001AN  22134.91667824  .00051297  00000-0  32196-2 0  9992,2 50839  53.2153 320.4951 0002246  32.6866 241.7630 15.08819166  1307,6917.944,95.439,541.363,538.255,0.0
50839.0,STARLINK-3320,PAYLOAD,2022-05-15 14:00:01,15.08756193,0.0002082,53.217,317.4997,35.1211,262.55400000000003,0.0078309,0.00126294,0.0,0 STARLINK-3320,1 50839U 22001AN  22135.58335648  .00126294  00000-0  78309-2 0  9998,2 50839  53.2170 317.4997 0002082  35.1211 262.5540 15.08756193 21079,6918.137,95.443,541.442,538.561,0.0
50839.0,STARLINK-3320,PAYLOAD,2022-05-15 22:00:00,15.08828457,0.0002226,53.2153,316.0054,31.544,277.6951,0.0010562,0.00016556,0.0,0 STARLINK-3320,1 50839U 22001AN  22135.91667824  .00016556  00000-0  10562-2 0  9995,2 50839  53.2153 316.0054 0002226  31.5440 277.6951 15.08828457  1303,6917.916,95.438,541.321,538.241,0.0
50839.0,STARLINK-3320,PAYLOAD,2022-05-16 06:00:02,15.08844522,0.0002024,53.2153,314.5072,33.691,287.1995,-0.0017362,-0.00027818,0.0,0 STARLINK-3320,1 50839U 22001AN  22136.25002315 -.00027818  00000-0 -17362-2 0  9991,2 50839  53.2153 314.5072 0002024  33.6910 287.1995 15.08844522 21179,6917.8669999999975,95.437,541.132,538.331,0.0
50839.0,STARLINK-3320,PAYLOAD,2022-05-16 14:00:01,15.08832528,0.0001984,53.2155,313.011,34.9862,297.4259,-0.00041452,-6.878e-05,0.0,0 STARLINK-3320,1 50839U 22001AN  22136.58334491 -.00006878  00000-0 -41452-3 0  9991,2 50839  53.2155 313.0110 0001984  34.9862 297.4259 15.08832528  1305,6917.903,95.438,541.141,538.396,0.0
50839.0,STARLINK-3320,PAYLOAD,2022-05-16 22:00:00,15.08818357,0.0002221,53.2151,311.5159,31.9692,312.0362,0.00080666,0.00012566,0.0,0 STARLINK-3320,1 50839U 22001AN  22136.91667824  .00012566  00000-0  80666-3 0  9996,2 50839  53.2151 311.5159 0002221  31.9692 312.0362 15.08818357 21271,6917.946999999999,95.439,541.3480000000002,538.275,0.0
50839.0,STARLINK-3320,PAYLOAD,2022-05-17 14:00:01,15.08850422,0.0002065,53.2152,308.5217,37.1511,330.0642,-0.00080896,-0.00013144,0.0,0 STARLINK-3320,1 50839U 22001AN  22137.58335648 -.00013144  00000-0 -80896-3 0  9996,2 50839  53.2152 308.5217 0002065  37.1511 330.0642 15.08850422  1309,6917.849,95.437,541.1419999999998,538.285,0.0
50839.0,STARLINK-3320,PAYLOAD,2022-05-17 22:00:01,15.08829681,0.0002232,53.2149,307.0266,32.1698,346.6583,0.0013505999999999,0.00021266,0.0,0 STARLINK-3320,1 50839U 22001AN  22137.91668981  .00021266  00000-0  13506-2 0  9997,2 50839  53.2149 307.0266 0002232  32.1698 346.6583 15.08829681  1300,6917.9119999999975,95.438,541.321,538.2330000000002,0.0
50839.0,STARLINK-3320,PAYLOAD,2022-05-18 06:00:00,15.08826714,0.0002033,53.2148,305.5284,34.4525,355.9122,0.0022022,0.00034922,0.0,0 STARLINK-3320,1 50839U 22001AN  22138.25001157  .00034922  00000-0  22022-2 0  9997,2 50839  53.2148 305.5284 0002033  34.4525 355.9122 15.08826714 21471,6917.920999999999,95.438,541.192,538.38,0.0
